[{"OBJECT_NAME":"OBJECT B","OBJECT_ID":"2024-153B","EPOCH":"2026-03-09T23:15:18.632160","MEAN_MOTION":15.30512917,"ECCENTRICITY":0.00113423,"INCLINATION":97.6622,"RA_OF_ASC_NODE":204.9195,"ARG_OF_PERICENTER":149.8438,"MEAN_ANOMALY":210.3457,"EPHEMERIS_TYPE":0,"CLASSIFICATION_TYPE":"U","NORAD_CAT_ID":60746,"ELEMENT_SET_NO":999,"REV_AT_EPOCH":8476,"BSTAR":0.00066193599,"MEAN_MOTION_DOT":0.00019515,"MEAN_MOTION_DDOT":0},{"OBJECT_NAME":"STARLINK-34526","OBJECT_ID":"2025-133K","EPOCH":"2026-03-09T10:35:19.551264","MEAN_MOTION":15.30195133,"ECCENTRICITY":0.0001248,"INCLINATION":53.1572,"RA_OF_ASC_NODE":117.7263,"ARG_OF_PERICENTER":102.743,"MEAN_ANOMALY":257.371,"EPHEMERIS_TYPE":0,"CLASSIFICATION_TYPE":"U","NORAD_CAT_ID":64481,"ELEMENT_SET_NO":999,"REV_AT_EPOCH":4104,"BSTAR":0.0004673297,"MEAN_MOTION_DOT":0.00013505,"MEAN_MOTION_DDOT":0}]
